[{"OBJECT_NAME":"STARLINK-11280 [DTC]","OBJECT_ID":"2024-175C","EPOCH":"2026-03-09T06:38:52.231488","MEAN_MOTION":15.69696248,"ECCENTRICITY":0.00013133,"INCLINATION":53.1584,"RA_OF_ASC_NODE":58.1644,"ARG_OF_PERICENTER":66.928,"MEAN_ANOMALY":293.1877,"EPHEMERIS_TYPE":0,"CLASSIFICATION_TYPE":"U","NORAD_CAT_ID":61245,"ELEMENT_SET_NO":999,"REV_AT_EPOCH":8330,"BSTAR":1.4806052e-5,"MEAN_MOTION_DOT":1.204e-5,"MEAN_MOTION_DDOT":0},{"OBJECT_NAME":"THORAD AGENA D DEB","OBJECT_ID":"1970-025PF","EPOCH":"2026-03-08T02:58:32.488032","MEAN_MOTION":15.64290563,"ECCENTRICITY":0.00166136,"INCLINATION":99.9335,"RA_OF_ASC_NODE":127.481,"ARG_OF_PERICENTER":247.6747,"MEAN_ANOMALY":112.2743,"EPHEMERIS_TYPE":0,"CLASSIFICATION_TYPE":"U","NORAD_CAT_ID":17717,"ELEMENT_SET_NO":999,"REV_AT_EPOCH":15016,"BSTAR":0.0052904272,"MEAN_MOTION_DOT":0.00540965,"MEAN_MOTION_DDOT":0}]
